<?xml version="1.0" encoding="UTF-8"?>
<ndm xmlns:xsi="http://www.w3.org/2001/XMLSchema-instance" xsi:noNamespaceSchemaLocation="https://sanaregistry.org/r/ndmxml_unqualified/ndmxml-2.0.0-master-2.0.xsd">
<omm id="CCSDS_OMM_VERS" version="2.0">
<header><CREATION_DATE/><ORIGINATOR/></header><body><segment><metadata><OBJECT_NAME>ONEWEB-0549</OBJECT_NAME><OBJECT_ID>2023-043F</OBJECT_ID><CENTER_NAME>EARTH</CENTER_NAME><REF_FRAME>TEME</REF_FRAME><TIME_SYSTEM>UTC</TIME_SYSTEM><MEAN_ELEMENT_THEORY>SGP4</MEAN_ELEMENT_THEORY></metadata><data><meanElements><EPOCH>2025-10-11T01:09:41.139648</EPOCH><MEAN_MOTION>13.21768495</MEAN_MOTION><ECCENTRICITY>.0001993</ECCENTRICITY><INCLINATION>87.9162</INCLINATION><RA_OF_ASC_NODE>293.7015</RA_OF_ASC_NODE><ARG_OF_PERICENTER>99.7533</ARG_OF_PERICENTER><MEAN_ANOMALY>260.3826</MEAN_ANOMALY></meanElements><tleParameters><EPHEMERIS_TYPE>0</EPHEMERIS_TYPE><CLASSIFICATION_TYPE>U</CLASSIFICATION_TYPE><NORAD_CAT_ID>56051</NORAD_CAT_ID><ELEMENT_SET_NO>999</ELEMENT_SET_NO><REV_AT_EPOCH>12531</REV_AT_EPOCH><BSTAR>.39348E-3</BSTAR><MEAN_MOTION_DOT>.175E-5</MEAN_MOTION_DOT><MEAN_MOTION_DDOT>0</MEAN_MOTION_DDOT></tleParameters></data></segment></body></omm>
<omm id="CCSDS_OMM_VERS" version="2.0">
<header><CREATION_DATE/><ORIGINATOR/></header><body><segment><metadata><OBJECT_NAME>ONEWEB-0550</OBJECT_NAME><OBJECT_ID>2023-043G</OBJECT_ID><CENTER_NAME>EARTH</CENTER_NAME><REF_FRAME>TEME</REF_FRAME><TIME_SYSTEM>UTC</TIME_SYSTEM><MEAN_ELEMENT_THEORY>SGP4</MEAN_ELEMENT_THEORY></metadata><data><meanElements><EPOCH>2025-10-11T02:40:20.311680</EPOCH><MEAN_MOTION>13.21813897</MEAN_MOTION><ECCENTRICITY>.0001778</ECCENTRICITY><INCLINATION>87.9163</INCLINATION><RA_OF_ASC_NODE>293.6832</RA_OF_ASC_NODE><ARG_OF_PERICENTER>86.8566</ARG_OF_PERICENTER><MEAN_ANOMALY>273.2771</MEAN_ANOMALY></meanElements><tleParameters><EPHEMERIS_TYPE>0</EPHEMERIS_TYPE><CLASSIFICATION_TYPE>U</CLASSIFICATION_TYPE><NORAD_CAT_ID>56052</NORAD_CAT_ID><ELEMENT_SET_NO>999</ELEMENT_SET_NO><REV_AT_EPOCH>12532</REV_AT_EPOCH><BSTAR>-.16517E-3</BSTAR><MEAN_MOTION_DOT>-.55E-6</MEAN_MOTION_DOT><MEAN_MOTION_DDOT>0</MEAN_MOTION_DDOT></tleParameters></data></segment></body></omm>
<omm id="CCSDS_OMM_VERS" version="2.0">
<header><CREATION_DATE/><ORIGINATOR/></header><body><segment><metadata><OBJECT_NAME>ONEWEB-0551</OBJECT_NAME><OBJECT_ID>2023-043H</OBJECT_ID><CENTER_NAME>EARTH</CENTER_NAME><REF_FRAME>TEME</REF_FRAME><TIME_SYSTEM>UTC</TIME_SYSTEM><MEAN_ELEMENT_THEORY>SGP4</MEAN_ELEMENT_THEORY></metadata><data><meanElements><EPOCH>2025-10-11T03:26:42.675072</EPOCH><MEAN_MOTION>13.15547807</MEAN_MOTION><ECCENTRICITY>.0001825</ECCENTRICITY><INCLINATION>87.8976</INCLINATION><RA_OF_ASC_NODE>308.9372</RA_OF_ASC_NODE><ARG_OF_PERICENTER>100.8770</ARG_OF_PERICENTER><MEAN_ANOMALY>259.2566</MEAN_ANOMALY></meanElements><tleParameters><EPHEMERIS_TYPE>0</EPHEMERIS_TYPE><CLASSIFICATION_TYPE>U</CLASSIFICATION_TYPE><NORAD_CAT_ID>56053</NORAD_CAT_ID><ELEMENT_SET_NO>999</ELEMENT_SET_NO><REV_AT_EPOCH>12365</REV_AT_EPOCH><BSTAR>.45665E-3</BSTAR><MEAN_MOTION_DOT>.185E-5</MEAN_MOTION_DOT><MEAN_MOTION_DDOT>0</MEAN_MOTION_DDOT></tleParameters></data></segment></body></omm>
<omm id="CCSDS_OMM_VERS" version="2.0">
<header><CREATION_DATE/><ORIGINATOR/></header><body><segment><metadata><OBJECT_NAME>ONEWEB-0552</OBJECT_NAME><OBJECT_ID>2023-043J</OBJECT_ID><CENTER_NAME>EARTH</CENTER_NAME><REF_FRAME>TEME</REF_FRAME><TIME_SYSTEM>UTC</TIME_SYSTEM><MEAN_ELEMENT_THEORY>SGP4</MEAN_ELEMENT_THEORY></metadata><data><meanElements><EPOCH>2025-10-10T22:53:40.040160</EPOCH><MEAN_MOTION>13.21697161</MEAN_MOTION><ECCENTRICITY>.0001777</ECCENTRICITY><INCLINATION>87.9168</INCLINATION><RA_OF_ASC_NODE>293.7233</RA_OF_ASC_NODE><ARG_OF_PERICENTER>100.7966</ARG_OF_PERICENTER><MEAN_ANOMALY>259.3368</MEAN_ANOMALY></meanElements><tleParameters><EPHEMERIS_TYPE>0</EPHEMERIS_TYPE><CLASSIFICATION_TYPE>U</CLASSIFICATION_TYPE><NORAD_CAT_ID>56054</NORAD_CAT_ID><ELEMENT_SET_NO>999</ELEMENT_SET_NO><REV_AT_EPOCH>12530</REV_AT_EPOCH><BSTAR>.32822E-3</BSTAR><MEAN_MOTION_DOT>.148E-5</MEAN_MOTION_DOT><MEAN_MOTION_DDOT>0</MEAN_MOTION_DDOT></tleParameters></data></segment></body></omm>
<omm id="CCSDS_OMM_VERS" version="2.0">
<header><CREATION_DATE/><ORIGINATOR/></header><body><segment><metadata><OBJECT_NAME>ONEWEB-0553</OBJECT_NAME><OBJECT_ID>2023-043K</OBJECT_ID><CENTER_NAME>EARTH</CENTER_NAME><REF_FRAME>TEME</REF_FRAME><TIME_SYSTEM>UTC</TIME_SYSTEM><MEAN_ELEMENT_THEORY>SGP4</MEAN_ELEMENT_THEORY></metadata><data><meanElements><EPOCH>2025-10-11T05:10:53.594112</EPOCH><MEAN_MOTION>13.16593673</MEAN_MOTION><ECCENTRICITY>.0002062</ECCENTRICITY><INCLINATION>87.8968</INCLINATION><RA_OF_ASC_NODE>278.3787</RA_OF_ASC_NODE><ARG_OF_PERICENTER>78.6891</ARG_OF_PERICENTER><MEAN_ANOMALY>281.4472</MEAN_ANOMALY></meanElements><tleParameters><EPHEMERIS_TYPE>0</EPHEMERIS_TYPE><CLASSIFICATION_TYPE>U</CLASSIFICATION_TYPE><NORAD_CAT_ID>56055</NORAD_CAT_ID><ELEMENT_SET_NO>999</ELEMENT_SET_NO><REV_AT_EPOCH>12621</REV_AT_EPOCH><BSTAR>.13334E-4</BSTAR><MEAN_MOTION_DOT>.18E-6</MEAN_MOTION_DOT><MEAN_MOTION_DDOT>0</MEAN_MOTION_DDOT></tleParameters></data></segment></body></omm>
<omm id="CCSDS_OMM_VERS" version="2.0">
<header><CREATION_DATE/><ORIGINATOR/></header><body><segment><metadata><OBJECT_NAME>ONEWEB-0554</OBJECT_NAME><OBJECT_ID>2023-043L</OBJECT_ID><CENTER_NAME>EARTH</CENTER_NAME><REF_FRAME>TEME</REF_FRAME><TIME_SYSTEM>UTC</TIME_SYSTEM><MEAN_ELEMENT_THEORY>SGP4</MEAN_ELEMENT_THEORY></metadata><data><meanElements><EPOCH>2025-10-10T17:56:02.344704</EPOCH><MEAN_MOTION>13.16595673</MEAN_MOTION><ECCENTRICITY>.000169</ECCENTRICITY><INCLINATION>87.8957</INCLINATION><RA_OF_ASC_NODE>278.4943</RA_OF_ASC_NODE><ARG_OF_PERICENTER>82.6264</ARG_OF_PERICENTER><MEAN_ANOMALY>277.5059</MEAN_ANOMALY></meanElements><tleParameters><EPHEMERIS_TYPE>0</EPHEMERIS_TYPE><CLASSIFICATION_TYPE>U</CLASSIFICATION_TYPE><NORAD_CAT_ID>56056</NORAD_CAT_ID><ELEMENT_SET_NO>999</ELEMENT_SET_NO><REV_AT_EPOCH>12613</REV_AT_EPOCH><BSTAR>-.8370415E-5</BSTAR><MEAN_MOTION_DOT>.1E-6</MEAN_MOTION_DOT><MEAN_MOTION_DDOT>0</MEAN_MOTION_DDOT></tleParameters></data></segment></body></omm>
<omm id="CCSDS_OMM_VERS" version="2.0">
<header><CREATION_DATE/><ORIGINATOR/></header><body><segment><metadata><OBJECT_NAME>ONEWEB-0555</OBJECT_NAME><OBJECT_ID>2023-043M</OBJECT_ID><CENTER_NAME>EARTH</CENTER_NAME><REF_FRAME>TEME</REF_FRAME><TIME_SYSTEM>UTC</TIME_SYSTEM><MEAN_ELEMENT_THEORY>SGP4</MEAN_ELEMENT_THEORY></metadata><data><meanElements><EPOCH>2025-10-10T22:29:37.152384</EPOCH><MEAN_MOTION>13.16594093</MEAN_MOTION><ECCENTRICITY>.0002267</ECCENTRICITY><INCLINATION>87.8972</INCLINATION><RA_OF_ASC_NODE>278.4291</RA_OF_ASC_NODE><ARG_OF_PERICENTER>77.1773</ARG_OF_PERICENTER><MEAN_ANOMALY>282.9611</MEAN_ANOMALY></meanElements><tleParameters><EPHEMERIS_TYPE>0</EPHEMERIS_TYPE><CLASSIFICATION_TYPE>U</CLASSIFICATION_TYPE><NORAD_CAT_ID>56057</NORAD_CAT_ID><ELEMENT_SET_NO>999</ELEMENT_SET_NO><REV_AT_EPOCH>12616</REV_AT_EPOCH><BSTAR>-.70995E-4</BSTAR><MEAN_MOTION_DOT>-.14E-6</MEAN_MOTION_DOT><MEAN_MOTION_DDOT>0</MEAN_MOTION_DDOT></tleParameters></data></segment></body></omm>
<omm id="CCSDS_OMM_VERS" version="2.0">
<header><CREATION_DATE/><ORIGINATOR/></header><body><segment><metadata><OBJECT_NAME>ONEWEB-0557</OBJECT_NAME><OBJECT_ID>2023-043N</OBJECT_ID><CENTER_NAME>EARTH</CENTER_NAME><REF_FRAME>TEME</REF_FRAME><TIME_SYSTEM>UTC</TIME_SYSTEM><MEAN_ELEMENT_THEORY>SGP4</MEAN_ELEMENT_THEORY></metadata><data><meanElements><EPOCH>2025-10-10T22:50:07.922112</EPOCH><MEAN_MOTION>13.16594541</MEAN_MOTION><ECCENTRICITY>.000194</ECCENTRICITY><INCLINATION>87.8958</INCLINATION><RA_OF_ASC_NODE>278.4418</RA_OF_ASC_NODE><ARG_OF_PERICENTER>48.9801</ARG_OF_PERICENTER><MEAN_ANOMALY>311.1497</MEAN_ANOMALY></meanElements><tleParameters><EPHEMERIS_TYPE>0</EPHEMERIS_TYPE><CLASSIFICATION_TYPE>U</CLASSIFICATION_TYPE><NORAD_CAT_ID>56058</NORAD_CAT_ID><ELEMENT_SET_NO>999</ELEMENT_SET_NO><REV_AT_EPOCH>12616</REV_AT_EPOCH><BSTAR>-.11723E-3</BSTAR><MEAN_MOTION_DOT>-.32E-6</MEAN_MOTION_DOT><MEAN_MOTION_DDOT>0</MEAN_MOTION_DDOT></tleParameters></data></segment></body></omm>

</ndm>
