ONEWEB-0549             
1 56051U 23043F   25284.04839282  .00000175  00000+0  39348-3 0  9998
2 56051  87.9162 293.7015 0001993  99.7533 260.3826 13.21768495125312
ONEWEB-0550             
1 56052U 23043G   25284.11134620 -.00000055  00000+0 -16517-3 0  9993
2 56052  87.9163 293.6832 0001778  86.8566 273.2771 13.21813897125324
ONEWEB-0551             
1 56053U 23043H   25284.14354948  .00000185  00000+0  45665-3 0  9992
2 56053  87.8976 308.9372 0001825 100.8770 259.2566 13.15547807123650
ONEWEB-0552             
1 56054U 23043J   25283.95393565  .00000148  00000+0  32822-3 0  9999
2 56054  87.9168 293.7233 0001777 100.7966 259.3368 13.21697161125305
ONEWEB-0553             
1 56055U 23043K   25284.21589808  .00000018  00000+0  13334-4 0  9991
2 56055  87.8968 278.3787 0002062  78.6891 281.4472 13.16593673126214
ONEWEB-0554             
1 56056U 23043L   25283.74724936  .00000010  00000+0 -83704-5 0  9994
2 56056  87.8957 278.4943 0001690  82.6264 277.5059 13.16595673126133
ONEWEB-0555             
1 56057U 23043M   25283.93723556 -.00000014  00000+0 -70995-4 0  9995
2 56057  87.8972 278.4291 0002267  77.1773 282.9611 13.16594093126164
ONEWEB-0557             
1 56058U 23043N   25283.95148058 -.00000032  00000+0 -11723-3 0  9999
2 56058  87.8958 278.4418 0001940  48.9801 311.1497 13.16594541126160
